[{"OBJECT_NAME":"STARLINK-34942","OBJECT_ID":"2025-175H","EPOCH":"2026-03-09T15:55:10.206912","MEAN_MOTION":15.05658299,"ECCENTRICITY":0.00026692,"INCLINATION":97.6035,"RA_OF_ASC_NODE":302.5892,"ARG_OF_PERICENTER":80.0541,"MEAN_ANOMALY":280.0987,"EPHEMERIS_TYPE":0,"CLASSIFICATION_TYPE":"U","NORAD_CAT_ID":65181,"ELEMENT_SET_NO":999,"REV_AT_EPOCH":3260,"BSTAR":6.5515386e-5,"MEAN_MOTION_DOT":8.85e-6,"MEAN_MOTION_DDOT":0},{"OBJECT_NAME":"OBJECT C","OBJECT_ID":"2025-313C","EPOCH":"2026-03-09T21:13:39.359712","MEAN_MOTION":14.86307196,"ECCENTRICITY":0.01562422,"INCLINATION":97.6236,"RA_OF_ASC_NODE":143.4861,"ARG_OF_PERICENTER":305.4656,"MEAN_ANOMALY":53.2062,"EPHEMERIS_TYPE":0,"CLASSIFICATION_TYPE":"U","NORAD_CAT_ID":67250,"ELEMENT_SET_NO":999,"REV_AT_EPOCH":1059,"BSTAR":0.0010268788,"MEAN_MOTION_DOT":0.00011246,"MEAN_MOTION_DDOT":0}]
